{
  "type": "FeatureCollection",
  "features": [
    {
      "type": "Feature",
      "properties": {
        "norad_id": 44334,
        "name": "EUTELSAT 7C",
        "group": "eutelsat",
        "lat": -0.034407840247247024,
        "lon": 151.34872292660063,
        "alt_km": 35787.30342553661,
        "timestamp": "2025-12-15T04:01:20.114481+00:00",
        "meta_object_name": "EUTELSAT 7C",
        "meta_object_id": "2019-034B",
        "meta_epoch": "2025-12-14T06:36:14.123808",
        "meta_mean_motion": 1.00271566,
        "meta_eccentricity": 0.00031451,
        "meta_inclination": 0.0721,
        "meta_ra_of_asc_node": 177.2248,
        "meta_arg_of_pericenter": 69.2885,
        "meta_mean_anomaly": 302.7275,
        "meta_ephemeris_type": 0,
        "meta_classification_type": "U",
        "meta_norad_cat_id": 44334,
        "meta_element_set_no": 999,
        "meta_rev_at_epoch": 498,
        "meta_bstar": 0,
        "meta_mean_motion_dot": 6.6e-07,
        "meta_mean_motion_ddot": 0,
        "tle_line1": "1 44334U 19034B   25348.27516347  .00000066  00000+0  00000+0 0  9992",
        "tle_line2": "2 44334   0.0721 177.2248 0003145  69.2885 302.7275  1.00271566  4987"
      },
      "geometry": {
        "type": "Point",
        "coordinates": [
          151.34872292660063,
          -0.034407840247247024
        ]
      }
    },
    {
      "type": "Feature",
      "properties": {
        "norad_id": 44624,
        "name": "EUTELSAT 5 WEST B",
        "group": "eutelsat",
        "lat": 0.02566249626167913,
        "lon": 139.3782819541982,
        "alt_km": 35793.60539215256,
        "timestamp": "2025-12-15T04:01:20.114493+00:00",
        "meta_object_name": "EUTELSAT 5 WEST B",
        "meta_object_id": "2019-067A",
        "meta_epoch": "2025-12-14T06:32:44.457792",
        "meta_mean_motion": 1.00274542,
        "meta_eccentricity": 0.00033436,
        "meta_inclination": 0.066,
        "meta_ra_of_asc_node": 337.094,
        "meta_arg_of_pericenter": 288.3519,
        "meta_mean_anomaly": 270.9344,
        "meta_ephemeris_type": 0,
        "meta_classification_type": "U",
        "meta_norad_cat_id": 44624,
        "meta_element_set_no": 999,
        "meta_rev_at_epoch": 2258,
        "meta_bstar": 0,
        "meta_mean_motion_dot": -2.4e-07,
        "meta_mean_motion_ddot": 0,
        "tle_line1": "1 44624U 19067A   25348.27273678 -.00000024  00000+0  00000+0 0  9992",
        "tle_line2": "2 44624   0.0660 337.0940 0003343 288.3519 270.9344  1.00274542 22580"
      },
      "geometry": {
        "type": "Point",
        "coordinates": [
          139.3782819541982,
          0.02566249626167913
        ]
      }
    },
    {
      "type": "Feature",
      "properties": {
        "norad_id": 45027,
        "name": "EUTELSAT KONNECT",
        "group": "eutelsat",
        "lat": 0.057617688833065867,
        "lon": 151.59327134558274,
        "alt_km": 35787.92210371219,
        "timestamp": "2025-12-15T04:01:20.114506+00:00",
        "meta_object_name": "EUTELSAT KONNECT",
        "meta_object_id": "2020-005B",
        "meta_epoch": "2025-12-14T06:36:14.123808",
        "meta_mean_motion": 1.0027404,
        "meta_eccentricity": 0.00013895,
        "meta_inclination": 0.0699,
        "meta_ra_of_asc_node": 98.0137,
        "meta_arg_of_pericenter": 169.3111,
        "meta_mean_anomaly": 282.1309,
        "meta_ephemeris_type": 0,
        "meta_classification_type": "U",
        "meta_norad_cat_id": 45027,
        "meta_element_set_no": 999,
        "meta_rev_at_epoch": 2248,
        "meta_bstar": 0,
        "meta_mean_motion_dot": 6.8e-07,
        "meta_mean_motion_ddot": 0,
        "tle_line1": "1 45027U 20005B   25348.27516347  .00000068  00000+0  00000+0 0  9994",
        "tle_line2": "2 45027   0.0699  98.0137 0001389 169.3111 282.1309  1.00274040 22484"
      },
      "geometry": {
        "type": "Point",
        "coordinates": [
          151.59327134558274,
          0.057617688833065867
        ]
      }
    },
    {
      "type": "Feature",
      "properties": {
        "norad_id": 49056,
        "name": "EUTELSAT QUANTUM",
        "group": "eutelsat",
        "lat": 0.004448072602181971,
        "lon": -167.92657980620976,
        "alt_km": 35783.76879854142,
        "timestamp": "2025-12-15T04:01:20.114517+00:00",
        "meta_object_name": "EUTELSAT QUANTUM",
        "meta_object_id": "2021-069B",
        "meta_epoch": "2025-12-14T05:05:00.362400",
        "meta_mean_motion": 1.00273539,
        "meta_eccentricity": 0.00035551,
        "meta_inclination": 0.0263,
        "meta_ra_of_asc_node": 46.849,
        "meta_arg_of_pericenter": 228.862,
        "meta_mean_anomaly": 291.3822,
        "meta_ephemeris_type": 0,
        "meta_classification_type": "U",
        "meta_norad_cat_id": 49056,
        "meta_element_set_no": 999,
        "meta_rev_at_epoch": 1607,
        "meta_bstar": 0,
        "meta_mean_motion_dot": 1.43e-06,
        "meta_mean_motion_ddot": 0,
        "tle_line1": "1 49056U 21069B   25348.21180975  .00000143  00000+0  00000+0 0  9993",
        "tle_line2": "2 49056   0.0263  46.8490 0003555 228.8620 291.3822  1.00273539 16075"
      },
      "geometry": {
        "type": "Point",
        "coordinates": [
          -167.92657980620976,
          0.004448072602181971
        ]
      }
    },
    {
      "type": "Feature",
      "properties": {
        "norad_id": 53765,
        "name": "EUTELSAT KONNECT VHTS",
        "group": "eutelsat",
        "lat": 0.04916067191979296,
        "lon": 147.09856936762634,
        "alt_km": 35787.26675977573,
        "timestamp": "2025-12-15T04:01:20.114530+00:00",
        "meta_object_name": "EUTELSAT KONNECT VHTS",
        "meta_object_id": "2022-110A",
        "meta_epoch": "2025-12-14T06:34:59.242656",
        "meta_mean_motion": 1.00270447,
        "meta_eccentricity": 0.00023669,
        "meta_inclination": 0.0638,
        "meta_ra_of_asc_node": 101.7469,
        "meta_arg_of_pericenter": 140.1746,
        "meta_mean_anomaly": 302.751,
        "meta_ephemeris_type": 0,
        "meta_classification_type": "U",
        "meta_norad_cat_id": 53765,
        "meta_element_set_no": 999,
        "meta_rev_at_epoch": 497,
        "meta_bstar": 0,
        "meta_mean_motion_dot": 3.5e-07,
        "meta_mean_motion_ddot": 0,
        "tle_line1": "1 53765U 22110A   25348.27429679  .00000035  00000+0  00000+0 0  9996",
        "tle_line2": "2 53765   0.0638 101.7469 0002366 140.1746 302.7510  1.00270447  4976"
      },
      "geometry": {
        "type": "Point",
        "coordinates": [
          147.09856936762634,
          0.04916067191979296
        ]
      }
    },
    {
      "type": "Feature",
      "properties": {
        "norad_id": 54048,
        "name": "EUTELSAT HOTBIRD 13F",
        "group": "eutelsat",
        "lat": -0.03647897543054619,
        "lon": 157.38156979976415,
        "alt_km": 35795.33577191182,
        "timestamp": "2025-12-15T04:01:20.114541+00:00",
        "meta_object_name": "EUTELSAT HOTBIRD 13F",
        "meta_object_id": "2022-134A",
        "meta_epoch": "2025-12-14T04:55:16.294080",
        "meta_mean_motion": 1.00264986,
        "meta_eccentricity": 0.00020179,
        "meta_inclination": 0.0498,
        "meta_ra_of_asc_node": 292.6459,
        "meta_arg_of_pericenter": 73.2181,
        "meta_mean_anomaly": 164.0753,
        "meta_ephemeris_type": 0,
        "meta_classification_type": "U",
        "meta_norad_cat_id": 54048,
        "meta_element_set_no": 999,
        "meta_rev_at_epoch": 1152,
        "meta_bstar": 0,
        "meta_mean_motion_dot": 1.04e-06,
        "meta_mean_motion_ddot": 0,
        "tle_line1": "1 54048U 22134A   25348.20504970  .00000104  00000+0  00000+0 0  9995",
        "tle_line2": "2 54048   0.0498 292.6459 0002017  73.2181 164.0753  1.00264986 11524"
      },
      "geometry": {
        "type": "Point",
        "coordinates": [
          157.38156979976415,
          -0.03647897543054619
        ]
      }
    },
    {
      "type": "Feature",
      "properties": {
        "norad_id": 54225,
        "name": "EUTELSAT HOTBIRD 13G",
        "group": "eutelsat",
        "lat": -0.042125784430358915,
        "lon": 157.39623368209894,
        "alt_km": 35778.72152268823,
        "timestamp": "2025-12-15T04:01:20.114553+00:00",
        "meta_object_name": "EUTELSAT HOTBIRD 13G",
        "meta_object_id": "2022-146A",
        "meta_epoch": "2025-12-14T04:55:16.294080",
        "meta_mean_motion": 1.00275616,
        "meta_eccentricity": 0.0001646,
        "meta_inclination": 0.0492,
        "meta_ra_of_asc_node": 236.0422,
        "meta_arg_of_pericenter": 307.4471,
        "meta_mean_anomaly": 346.4471,
        "meta_ephemeris_type": 0,
        "meta_classification_type": "U",
        "meta_norad_cat_id": 54225,
        "meta_element_set_no": 999,
        "meta_rev_at_epoch": 561,
        "meta_bstar": 0,
        "meta_mean_motion_dot": 1.05e-06,
        "meta_mean_motion_ddot": 0,
        "tle_line1": "1 54225U 22146A   25348.20504970  .00000105  00000+0  00000+0 0  9996",
        "tle_line2": "2 54225   0.0492 236.0422 0001646 307.4471 346.4471  1.00275616  5616"
      },
      "geometry": {
        "type": "Point",
        "coordinates": [
          157.39623368209894,
          -0.042125784430358915
        ]
      }
    }
  ]
}